OBJECT_NAME,OBJECT_ID,EPOCH,MEAN_MOTION,ECCENTRICITY,INCLINATION,RA_OF_ASC_NODE,ARG_OF_PERICENTER,MEAN_ANOMALY,EPHEMERIS_TYPE,CLASSIFICATION_TYPE,NORAD_CAT_ID,ELEMENT_SET_NO,REV_AT_EPOCH,BSTAR,MEAN_MOTION_DOT,MEAN_MOTION_DDOT
LEMUR-2-LAILA,2025-276DQ,2026-06-13T05:00:17.874144,15.21230511,.00019753,97.4182,238.1549,141.1445,218.9933,0,U,66776,999,2984,.28232598E-3,.6235E-4,0
LEMUR-2-CELIJO-SB-PK,2025-276DW,2026-06-12T18:24:37.193760,14.99926331,.00089108,97.5276,234.6889,142.8815,217.3026,0,U,66781,999,2196,.65240202E-3,.8051E-4,0
LEMUR-2-FINNIAN,2025-276DX,2026-06-13T03:29:23.881920,15.00328903,.0008797,97.5280,235.2652,101.3150,258.9063,0,U,66782,999,1939,.55478458E-3,.6909E-4,0
LEMUR-2-STARLIGHT,2025-276DY,2026-06-12T10:20:06.161568,14.98995855,.00152787,97.5278,234.2313,141.2411,218.9912,0,U,66783,999,2948,.48011997E-3,.5775E-4,0
LEMUR-2-TARTIFLETTE,2025-276DZ,2026-06-12T10:18:02.803104,14.99025667,.00139955,97.5281,234.2358,147.2630,212.9464,0,U,66784,999,2948,.54761163E-3,.6598E-4,0
LEMUR-2-VUKASIN,2025-276EA,2026-06-13T03:51:15.759648,15.00326048,.00063121,97.5317,235.2291,133.5156,226.6594,0,U,66785,999,2954,.47974077E-3,.5963E-4,0
LEMUR-2-HOTSPUR-TOM,2025-276EB,2026-06-13T03:44:15.372672,14.98915335,.00155291,97.5271,234.9200,139.5677,220.6704,0,U,66786,999,2952,.56189886E-3,.6756E-4,0
LEMUR-2-MYRA,2025-276EC,2026-06-13T03:00:02.135808,15.00188958,.00161041,97.5224,235.1392,154.8626,205.3386,0,U,66787,999,2960,.59697747E-3,.7426E-4,0
LEMUR-2 FIKRETDENGIZ,2026-004A,2026-06-12T23:10:58.499904,14.88297265,.00097145,97.8009,162.5889,144.8956,215.2902,0,U,67363,999,2265,.41529829E-3,.3789E-4,0
TWILIGHT-1 OBJECT B,2026-004B,2026-06-13T06:11:05.886528,14.87689773,.00097159,97.8061,162.8932,135.4952,224.7046,0,U,67364,999,2270,.1931417E-3,.1706E-4,0
LEMUR-2-MARIO-SOUSA,2026-004C,2026-06-12T22:48:09.186912,14.88482863,.00093561,97.7985,162.5696,145.3466,214.8363,0,U,67365,999,2266,.53566802E-3,.4926E-4,0
LEMUR-2-SONNENBLUME,2026-004E,2026-06-12T22:45:02.910240,14.88295728,.0008827,97.7981,162.5538,147.3842,212.7921,0,U,67367,999,2266,.33403651E-3,.3036E-4,0
LEMUR-2-WOBLER,2026-004F,2026-06-13T00:13:17.051232,14.88490510,.00093061,97.8033,162.7320,137.1340,223.0604,0,U,67368,999,2267,.46419745E-3,.4261E-4,0
LEMUR-2-GRAM-E-SUE,2026-004H,2026-06-13T06:26:51.864576,14.88455202,.00079335,97.7966,162.8843,146.9059,213.2655,0,U,67370,999,2271,.29276257E-3,.2664E-4,0
LEMUR-2-KATIE,2026-004AA,2026-06-13T06:14:29.823360,14.90024192,.00047607,97.8027,163.3223,101.4256,258.7497,0,U,67387,999,2272,.36920397E-3,.3508E-4,0
LEMUR-2-HCS-BAZUS,2026-004AB,2026-06-13T06:13:12.330336,14.90033164,.00043262,97.8013,163.3024,97.7631,262.4078,0,U,67388,999,2272,.51499814E-3,.4917E-4,0
