LEMUR-2-LAILA           
1 66776U 25276DQ  26164.20854021  .00006235  00000+0  28233-3 0  9991
2 66776  97.4182 238.1549 0001975 141.1445 218.9933 15.21230511 29848
LEMUR-2-CELIJO-SB-PK    
1 66781U 25276DW  26163.76709715  .00008051  00000+0  65240-3 0  9993
2 66781  97.5276 234.6889 0008910 142.8815 217.3026 14.99926331 21969
LEMUR-2-FINNIAN         
1 66782U 25276DX  26164.14541530  .00006909  00000+0  55478-3 0  9998
2 66782  97.5280 235.2652 0008797 101.3150 258.9063 15.00328903 19395
LEMUR-2-STARLIGHT       
1 66783U 25276DY  26163.43062687  .00005775  00000+0  48012-3 0  9997
2 66783  97.5278 234.2313 0015278 141.2411 218.9912 14.98995855 29483
LEMUR-2-TARTIFLETTE     
1 66784U 25276DZ  26163.42919911  .00006598  00000+0  54761-3 0  9990
2 66784  97.5281 234.2358 0013995 147.2630 212.9464 14.99025667 29482
LEMUR-2-VUKASIN         
1 66785U 25276EA  26164.16059907  .00005963  00000+0  47974-3 0  9996
2 66785  97.5317 235.2291 0006312 133.5156 226.6594 15.00326048 29549
LEMUR-2-HOTSPUR-TOM     
1 66786U 25276EB  26164.15573348  .00006756  00000+0  56190-3 0  9997
2 66786  97.5271 234.9200 0015529 139.5677 220.6704 14.98915335 29523
LEMUR-2-MYRA            
1 66787U 25276EC  26164.12502472  .00007426  00000+0  59698-3 0  9996
2 66787  97.5224 235.1392 0016104 154.8626 205.3386 15.00188958 29603
LEMUR-2 FIKRETDENGIZ    
1 67363U 26004A   26163.96595486  .00003789  00000+0  41530-3 0  9999
2 67363  97.8009 162.5889 0009714 144.8956 215.2902 14.88297265 22655
TWILIGHT-1 OBJECT B     
1 67364U 26004B   26164.25770702  .00001706  00000+0  19314-3 0  9991
2 67364  97.8061 162.8932 0009715 135.4952 224.7046 14.87689773 22707
LEMUR-2-MARIO-SOUSA     
1 67365U 26004C   26163.95010633  .00004926  00000+0  53567-3 0  9993
2 67365  97.7985 162.5696 0009356 145.3466 214.8363 14.88482863 22666
LEMUR-2-SONNENBLUME     
1 67367U 26004E   26163.94795035  .00003036  00000+0  33404-3 0  9999
2 67367  97.7981 162.5538 0008827 147.3842 212.7921 14.88295728 22660
LEMUR-2-WOBLER          
1 67368U 26004F   26164.00922513  .00004261  00000+0  46420-3 0  9994
2 67368  97.8033 162.7320 0009306 137.1340 223.0604 14.88490510 22674
LEMUR-2-GRAM-E-SUE      
1 67370U 26004H   26164.26865584  .00002664  00000+0  29276-3 0  9994
2 67370  97.7966 162.8843 0007933 146.9059 213.2655 14.88455202 22712
LEMUR-2-KATIE           
1 67387U 26004AA  26164.26006740  .00003508  00000+0  36920-3 0  9995
2 67387  97.8027 163.3223 0004760 101.4256 258.7497 14.90024192 22729
LEMUR-2-HCS-BAZUS       
1 67388U 26004AB  26164.25917049  .00004917  00000+0  51500-3 0  9994
2 67388  97.8013 163.3024 0004326  97.7631 262.4078 14.90033164 22722
